[{"OBJECT_NAME":"STARLINK-36385","OBJECT_ID":"2026-025AA","EPOCH":"2026-03-04T04:48:46.541952","MEAN_MOTION":15.8098483,"ECCENTRICITY":8.23e-5,"INCLINATION":97.2854,"RA_OF_ASC_NODE":174.6215,"ARG_OF_PERICENTER":86.6479,"MEAN_ANOMALY":273.4883,"EPHEMERIS_TYPE":0,"CLASSIFICATION_TYPE":"U","NORAD_CAT_ID":67717,"ELEMENT_SET_NO":999,"REV_AT_EPOCH":508,"BSTAR":0.0019256,"MEAN_MOTION_DOT":0.00388619,"MEAN_MOTION_DDOT":0},{"OBJECT_NAME":"CZ-2F DEB","OBJECT_ID":"2026-024E","EPOCH":"2026-02-27T12:10:33.167712","MEAN_MOTION":15.20915897,"ECCENTRICITY":0.02465096,"INCLINATION":50.3169,"RA_OF_ASC_NODE":68.583,"ARG_OF_PERICENTER":240.0171,"MEAN_ANOMALY":117.6115,"EPHEMERIS_TYPE":0,"CLASSIFICATION_TYPE":"U","NORAD_CAT_ID":67718,"ELEMENT_SET_NO":999,"REV_AT_EPOCH":308,"BSTAR":0.0035886422,"MEAN_MOTION_DOT":0.00191604,"MEAN_MOTION_DDOT":0},{"OBJECT_NAME":"CZ-2F DEB","OBJECT_ID":"2026-024F","EPOCH":"2026-03-04T03:53:54.624192","MEAN_MOTION":15.01882652,"ECCENTRICITY":0.0316955,"INCLINATION":49.7924,"RA_OF_ASC_NODE":48.5142,"ARG_OF_PERICENTER":249.3147,"MEAN_ANOMALY":107.3553,"EPHEMERIS_TYPE":0,"CLASSIFICATION_TYPE":"U","NORAD_CAT_ID":67719,"ELEMENT_SET_NO":999,"REV_AT_EPOCH":341,"BSTAR":0.0045619,"MEAN_MOTION_DOT":0.00188947,"MEAN_MOTION_DDOT":0},{"OBJECT_NAME":"CZ-2F DEB","OBJECT_ID":"2026-024G","EPOCH":"2026-03-04T03:21:56.203776","MEAN_MOTION":14.99182477,"ECCENTRICITY":0.032775,"INCLINATION":49.8314,"RA_OF_ASC_NODE":49.1569,"ARG_OF_PERICENTER":245.3936,"MEAN_ANOMALY":111.2535,"EPHEMERIS_TYPE":0,"CLASSIFICATION_TYPE":"U","NORAD_CAT_ID":67720,"ELEMENT_SET_NO":999,"REV_AT_EPOCH":372,"BSTAR":0.0046287,"MEAN_MOTION_DOT":0.00186466,"MEAN_MOTION_DDOT":0},{"OBJECT_NAME":"STARLINK-36772","OBJECT_ID":"2026-026A","EPOCH":"2026-03-04T04:00:03.000096","MEAN_MOTION":15.69546142,"ECCENTRICITY":0.0001729,"INCLINATION":97.284,"RA_OF_ASC_NODE":117.5515,"ARG_OF_PERICENTER":68.7658,"MEAN_ANOMALY":160.7439,"EPHEMERIS_TYPE":0,"CLASSIFICATION_TYPE":"U","NORAD_CAT_ID":67721,"ELEMENT_SET_NO":999,"REV_AT_EPOCH":442,"BSTAR":-0.018787,"MEAN_MOTION_DOT":-0.01955399,"MEAN_MOTION_DDOT":0},{"OBJECT_NAME":"STARLINK-36796","OBJECT_ID":"2026-026B","EPOCH":"2026-03-04T04:00:03.000096","MEAN_MOTION":15.68676422,"ECCENTRICITY":0.0001719,"INCLINATION":97.2839,"RA_OF_ASC_NODE":117.551,"ARG_OF_PERICENTER":72.6573,"MEAN_ANOMALY":155.8151,"EPHEMERIS_TYPE":0,"CLASSIFICATION_TYPE":"U","NORAD_CAT_ID":67722,"ELEMENT_SET_NO":999,"REV_AT_EPOCH":442,"BSTAR":-0.019538,"MEAN_MOTION_DOT":-0.01960893,"MEAN_MOTION_DDOT":0},{"OBJECT_NAME":"STARLINK-36369","OBJECT_ID":"2026-026C","EPOCH":"2026-03-04T04:00:03.000096","MEAN_MOTION":15.69076892,"ECCENTRICITY":0.0001682,"INCLINATION":97.284,"RA_OF_ASC_NODE":117.5554,"ARG_OF_PERICENTER":69.1402,"MEAN_ANOMALY":169.2728,"EPHEMERIS_TYPE":0,"CLASSIFICATION_TYPE":"U","NORAD_CAT_ID":67723,"ELEMENT_SET_NO":999,"REV_AT_EPOCH":442,"BSTAR":-0.019169,"MEAN_MOTION_DOT":-0.01956483,"MEAN_MOTION_DDOT":0},{"OBJECT_NAME":"STARLINK-36752","OBJECT_ID":"2026-026D","EPOCH":"2026-03-04T04:00:03.000096","MEAN_MOTION":15.7037269,"ECCENTRICITY":0.0001621,"INCLINATION":97.284,"RA_OF_ASC_NODE":117.5641,"ARG_OF_PERICENTER":72.4517,"MEAN_ANOMALY":185.8794,"EPHEMERIS_TYPE":0,"CLASSIFICATION_TYPE":"U","NORAD_CAT_ID":67724,"ELEMENT_SET_NO":999,"REV_AT_EPOCH":442,"BSTAR":-0.018231,"MEAN_MOTION_DOT":-0.01962979,"MEAN_MOTION_DDOT":0},{"OBJECT_NAME":"STARLINK-36754","OBJECT_ID":"2026-026E","EPOCH":"2026-03-04T04:00:03.000096","MEAN_MOTION":15.67780612,"ECCENTRICITY":0.0001736,"INCLINATION":97.2839,"RA_OF_ASC_NODE":117.5556,"ARG_OF_PERICENTER":70.7293,"MEAN_ANOMALY":167.6579,"EPHEMERIS_TYPE":0,"CLASSIFICATION_TYPE":"U","NORAD_CAT_ID":67725,"ELEMENT_SET_NO":999,"REV_AT_EPOCH":442,"BSTAR":-0.020145,"MEAN_MOTION_DOT":-0.01950185,"MEAN_MOTION_DDOT":0},{"OBJECT_NAME":"STARLINK-36755","OBJECT_ID":"2026-026F","EPOCH":"2026-03-04T04:00:03.000096","MEAN_MOTION":15.65327314,"ECCENTRICITY":0.0001811,"INCLINATION":97.2841,"RA_OF_ASC_NODE":117.5459,"ARG_OF_PERICENTER":71.1872,"MEAN_ANOMALY":144.9911,"EPHEMERIS_TYPE":0,"CLASSIFICATION_TYPE":"U","NORAD_CAT_ID":67726,"ELEMENT_SET_NO":999,"REV_AT_EPOCH":442,"BSTAR":-0.022144,"MEAN_MOTION_DOT":-0.01942034,"MEAN_MOTION_DDOT":0},{"OBJECT_NAME":"STARLINK-36741","OBJECT_ID":"2026-026G","EPOCH":"2026-03-04T04:00:03.000096","MEAN_MOTION":15.66457358,"ECCENTRICITY":0.0001763,"INCLINATION":97.2839,"RA_OF_ASC_NODE":117.5543,"ARG_OF_PERICENTER":71.5001,"MEAN_ANOMALY":163.9819,"EPHEMERIS_TYPE":0,"CLASSIFICATION_TYPE":"U","NORAD_CAT_ID":67727,"ELEMENT_SET_NO":999,"REV_AT_EPOCH":442,"BSTAR":-0.021244,"MEAN_MOTION_DOT":-0.01948881,"MEAN_MOTION_DDOT":0},{"OBJECT_NAME":"STARLINK-36757","OBJECT_ID":"2026-026H","EPOCH":"2026-03-04T04:00:03.000096","MEAN_MOTION":15.70931031,"ECCENTRICITY":0.000146,"INCLINATION":97.2833,"RA_OF_ASC_NODE":117.577,"ARG_OF_PERICENTER":70.9189,"MEAN_ANOMALY":217.8141,"EPHEMERIS_TYPE":0,"CLASSIFICATION_TYPE":"U","NORAD_CAT_ID":67728,"ELEMENT_SET_NO":999,"REV_AT_EPOCH":442,"BSTAR":-0.017802,"MEAN_MOTION_DOT":-0.01962223,"MEAN_MOTION_DDOT":0},{"OBJECT_NAME":"STARLINK-36751","OBJECT_ID":"2026-026J","EPOCH":"2026-03-04T04:00:03.000096","MEAN_MOTION":15.71514064,"ECCENTRICITY":0.0001526,"INCLINATION":97.2836,"RA_OF_ASC_NODE":117.5851,"ARG_OF_PERICENTER":61.2545,"MEAN_ANOMALY":246.2299,"EPHEMERIS_TYPE":0,"CLASSIFICATION_TYPE":"U","NORAD_CAT_ID":67729,"ELEMENT_SET_NO":999,"REV_AT_EPOCH":442,"BSTAR":-0.017606,"MEAN_MOTION_DOT":-0.01985882,"MEAN_MOTION_DDOT":0},{"OBJECT_NAME":"STARLINK-36747","OBJECT_ID":"2026-026K","EPOCH":"2026-03-04T04:00:03.000096","MEAN_MOTION":15.71394603,"ECCENTRICITY":0.0001476,"INCLINATION":97.2838,"RA_OF_ASC_NODE":117.5811,"ARG_OF_PERICENTER":63.7495,"MEAN_ANOMALY":234.3819,"EPHEMERIS_TYPE":0,"CLASSIFICATION_TYPE":"U","NORAD_CAT_ID":67730,"ELEMENT_SET_NO":999,"REV_AT_EPOCH":442,"BSTAR":-0.017382,"MEAN_MOTION_DOT":-0.01915538,"MEAN_MOTION_DDOT":0},{"OBJECT_NAME":"STARLINK-36315","OBJECT_ID":"2026-026L","EPOCH":"2026-03-04T04:00:03.000096","MEAN_MOTION":15.71670292,"ECCENTRICITY":0.0001378,"INCLINATION":97.2837,"RA_OF_ASC_NODE":117.5881,"ARG_OF_PERICENTER":72.6059,"MEAN_ANOMALY":241.7595,"EPHEMERIS_TYPE":0,"CLASSIFICATION_TYPE":"U","NORAD_CAT_ID":67731,"ELEMENT_SET_NO":999,"REV_AT_EPOCH":442,"BSTAR":-0.017154,"MEAN_MOTION_DOT":-0.01913005,"MEAN_MOTION_DDOT":0},{"OBJECT_NAME":"STARLINK-36260","OBJECT_ID":"2026-026M","EPOCH":"2026-03-04T04:00:03.000096","MEAN_MOTION":15.72051142,"ECCENTRICITY":0.0001511,"INCLINATION":97.2835,"RA_OF_ASC_NODE":117.5922,"ARG_OF_PERICENTER":58.3796,"MEAN_ANOMALY":265.6343,"EPHEMERIS_TYPE":0,"CLASSIFICATION_TYPE":"U","NORAD_CAT_ID":67732,"ELEMENT_SET_NO":999,"REV_AT_EPOCH":442,"BSTAR":-0.016914,"MEAN_MOTION_DOT":-0.01916565,"MEAN_MOTION_DDOT":0},{"OBJECT_NAME":"STARLINK-36746","OBJECT_ID":"2026-026N","EPOCH":"2026-03-04T04:00:03.000096","MEAN_MOTION":15.51822594,"ECCENTRICITY":0.0001425,"INCLINATION":97.2838,"RA_OF_ASC_NODE":117.4594,"ARG_OF_PERICENTER":70.0841,"MEAN_ANOMALY":294.0083,"EPHEMERIS_TYPE":0,"CLASSIFICATION_TYPE":"U","NORAD_CAT_ID":67733,"ELEMENT_SET_NO":999,"REV_AT_EPOCH":442,"BSTAR":-0.030735,"MEAN_MOTION_DOT":-0.0164704,"MEAN_MOTION_DDOT":0}]
