STARLINK-36385          
1 67717U 26025AA  26063.20053868  .00388619  00000+0  19256-2 0  9991
2 67717  97.2854 174.6215 0000823  86.6479 273.4883 15.80984830  5088
CZ-2F DEB               
1 67718U 26024E   26058.50732833  .00191604  00000+0  35886-2 0  9997
2 67718  50.3169  68.5830 0246509 240.0171 117.6115 15.20915897  3086
CZ-2F DEB               
1 67719U 26024F   26063.16243778  .00188947  00000+0  45619-2 0  9992
2 67719  49.7924  48.5142 0316955 249.3147 107.3553 15.01882652  3410
CZ-2F DEB               
1 67720U 26024G   26063.14023384  .00186466  00000+0  46287-2 0  9997
2 67720  49.8314  49.1569 0327750 245.3936 111.2535 14.99182477  3725
STARLINK-36772          
1 67721U 26026A   26063.16670139 -.01955399  00000+0 -18787-1 0  9993
2 67721  97.2840 117.5515 0001729  68.7658 160.7439 15.69546142  4422
STARLINK-36796          
1 67722U 26026B   26063.16670139 -.01960893  00000+0 -19538-1 0  9994
2 67722  97.2839 117.5510 0001719  72.6573 155.8151 15.68676422  4425
STARLINK-36369          
1 67723U 26026C   26063.16670139 -.01956483  00000+0 -19169-1 0  9995
2 67723  97.2840 117.5554 0001682  69.1402 169.2728 15.69076892  4422
STARLINK-36752          
1 67724U 26026D   26063.16670139 -.01962979  00000+0 -18231-1 0  9992
2 67724  97.2840 117.5641 0001621  72.4517 185.8794 15.70372690  4421
STARLINK-36754          
1 67725U 26026E   26063.16670139 -.01950185  00000+0 -20145-1 0  9996
2 67725  97.2839 117.5556 0001736  70.7293 167.6579 15.67780612  4426
STARLINK-36755          
1 67726U 26026F   26063.16670139 -.01942034  00000+0 -22144-1 0  9992
2 67726  97.2841 117.5459 0001811  71.1872 144.9911 15.65327314  4426
STARLINK-36741          
1 67727U 26026G   26063.16670139 -.01948881  00000+0 -21244-1 0  9999
2 67727  97.2839 117.5543 0001763  71.5001 163.9819 15.66457358  4423
STARLINK-36757          
1 67728U 26026H   26063.16670139 -.01962223  00000+0 -17802-1 0  9991
2 67728  97.2833 117.5770 0001460  70.9189 217.8141 15.70931031  4421
STARLINK-36751          
1 67729U 26026J   26063.16670139 -.01985882  00000+0 -17606-1 0  9990
2 67729  97.2836 117.5851 0001526  61.2545 246.2299 15.71514064  4421
STARLINK-36747          
1 67730U 26026K   26063.16670139 -.01915538  00000+0 -17382-1 0  9994
2 67730  97.2838 117.5811 0001476  63.7495 234.3819 15.71394603  4427
STARLINK-36315          
1 67731U 26026L   26063.16670139 -.01913005  00000+0 -17154-1 0  9999
2 67731  97.2837 117.5881 0001378  72.6059 241.7595 15.71670292  4424
STARLINK-36260          
1 67732U 26026M   26063.16670139 -.01916565  00000+0 -16914-1 0  9997
2 67732  97.2835 117.5922 0001511  58.3796 265.6343 15.72051142  4421
STARLINK-36746          
1 67733U 26026N   26063.16670139 -.01647040  00000+0 -30735-1 0  9994
2 67733  97.2838 117.4594 0001425  70.0841 294.0083 15.51822594  4426
